ONEWEB-0650             
1 55813U 23029T   26062.76818511  .00000074  00000+0  15215-3 0  9998
2 55813  87.9235 325.9785 0001884  93.9345 266.2004 13.19726909144995
ONEWEB-0652             
1 55814U 23029U   26062.74634080  .00000153  00000+0  37906-3 0  9993
2 55814  87.8991 310.7558 0001608  75.1195 285.0113 13.14501264145512
ONEWEB-0653             
1 55815U 23029V   26062.73047969 -.00000016  00000+0 -77519-4 0  9992
2 55815  87.8996 310.7492 0001448  76.4007 283.7284 13.14502103145543
ONEWEB-0654             
1 55816U 23029W   26062.72572116 -.00000008  00000+0 -54947-4 0  9990
2 55816  87.8990 310.7498 0001590  67.5483 292.5815 13.14502063145566
ONEWEB-0656             
1 55817U 23029X   26062.59912054  .00000087  00000+0  18278-3 0  9996
2 55817  87.9183 295.5101 0001545  67.3568 292.7728 13.20771710147218
ONEWEB-0657             
1 55818U 23029Y   26062.76345922  .00000086  00000+0  18298-3 0  9991
2 55818  87.9236 325.9782 0002289  68.0263 292.1113 13.19725447145008
ONEWEB-0658             
1 55819U 23029Z   26062.75871860  .00000092  00000+0  19770-3 0  9999
2 55819  87.9247 325.9456 0001936  91.4974 268.6381 13.19725483145012
ONEWEB-0660             
1 55820U 23029AA  26062.70352495 -.00000072  00000+0 -22844-3 0  9990
2 55820  87.9003 310.7405 0001409  89.8269 270.3022 13.14503251145545
ONEWEB-0661             
1 55821U 23029AB  26062.73840947  .00000178  00000+0  44534-3 0  9993
2 55821  87.8989 310.7904 0001339  86.3883 273.7400 13.14502521145533
ONEWEB-0662             
1 55822U 23029AC  26062.69718021 -.00000008  00000+0 -57326-4 0  9994
2 55822  87.8993 310.8058 0001434  90.2489 269.8805 13.14502102145576
ONEWEB-0663             
1 55823U 23029AD  26062.64064662  .00000017  00000+0  91055-5 0  9991
2 55823  87.9190 295.5745 0001581 100.0890 260.0421 13.20862132147217
ONEWEB-0664             
1 55824U 23029AE  26062.66224837  .00000192  00000+0  43958-3 0  9997
2 55824  87.9178 295.5626 0000999  89.7150 270.4098 13.20773959147219
ONEWEB-0665             
1 55825U 23029AF  26062.73524091  .00000109  00000+0  25965-3 0  9997
2 55825  87.8991 310.7710 0001479  91.5852 268.5447 13.14501826145556
ONEWEB-0666             
1 55826U 23029AG  26062.65593964  .00000064  00000+0  12564-3 0  9995
2 55826  87.9170 295.5543 0002140  69.2281 290.9081 13.20772315147224
ONEWEB-0667             
1 55827U 23029AH  26062.64962842  .00000037  00000+0  58894-4 0  9997
2 55827  87.9187 295.4959 0001473  91.2648 268.8654 13.20771313147219
ONEWEB-0669             
1 55828U 23029AJ  26062.64489243  .00000011  00000+0 -58459-5 0  9998
2 55828  87.9167 295.5223 0001386  60.9380 299.1892 13.20770998147211
ONEWEB-0670             
1 55829U 23029AK  26062.71303489 -.00000097  00000+0 -29743-3 0  9991
2 55829  87.8991 310.7945 0001228  83.3564 276.7705 13.14502234145575
