[{"OBJECT_NAME":"ONEWEB-0650","OBJECT_ID":"2023-029T","EPOCH":"2026-03-03T18:26:11.193504","MEAN_MOTION":13.19726909,"ECCENTRICITY":0.00018846,"INCLINATION":87.9235,"RA_OF_ASC_NODE":325.9785,"ARG_OF_PERICENTER":93.9345,"MEAN_ANOMALY":266.2004,"EPHEMERIS_TYPE":0,"CLASSIFICATION_TYPE":"U","NORAD_CAT_ID":55813,"ELEMENT_SET_NO":999,"REV_AT_EPOCH":14499,"BSTAR":0.00015215275,"MEAN_MOTION_DOT":7.4e-7,"MEAN_MOTION_DDOT":0},{"OBJECT_NAME":"ONEWEB-0652","OBJECT_ID":"2023-029U","EPOCH":"2026-03-03T17:54:43.845120","MEAN_MOTION":13.14501264,"ECCENTRICITY":0.00016083,"INCLINATION":87.8991,"RA_OF_ASC_NODE":310.7558,"ARG_OF_PERICENTER":75.1195,"MEAN_ANOMALY":285.0113,"EPHEMERIS_TYPE":0,"CLASSIFICATION_TYPE":"U","NORAD_CAT_ID":55814,"ELEMENT_SET_NO":999,"REV_AT_EPOCH":14551,"BSTAR":0.00037905557,"MEAN_MOTION_DOT":1.53e-6,"MEAN_MOTION_DDOT":0},{"OBJECT_NAME":"ONEWEB-0653","OBJECT_ID":"2023-029V","EPOCH":"2026-03-03T17:31:53.445216","MEAN_MOTION":13.14502103,"ECCENTRICITY":0.00014482,"INCLINATION":87.8996,"RA_OF_ASC_NODE":310.7492,"ARG_OF_PERICENTER":76.4007,"MEAN_ANOMALY":283.7284,"EPHEMERIS_TYPE":0,"CLASSIFICATION_TYPE":"U","NORAD_CAT_ID":55815,"ELEMENT_SET_NO":999,"REV_AT_EPOCH":14554,"BSTAR":-7.7518588e-5,"MEAN_MOTION_DOT":-1.6e-7,"MEAN_MOTION_DDOT":0},{"OBJECT_NAME":"ONEWEB-0654","OBJECT_ID":"2023-029W","EPOCH":"2026-03-03T17:25:02.308224","MEAN_MOTION":13.14502063,"ECCENTRICITY":0.00015905,"INCLINATION":87.899,"RA_OF_ASC_NODE":310.7498,"ARG_OF_PERICENTER":67.5483,"MEAN_ANOMALY":292.5815,"EPHEMERIS_TYPE":0,"CLASSIFICATION_TYPE":"U","NORAD_CAT_ID":55816,"ELEMENT_SET_NO":999,"REV_AT_EPOCH":14556,"BSTAR":-5.4947294e-5,"MEAN_MOTION_DOT":-8.0e-8,"MEAN_MOTION_DDOT":0},{"OBJECT_NAME":"ONEWEB-0656","OBJECT_ID":"2023-029X","EPOCH":"2026-03-03T14:22:44.014656","MEAN_MOTION":13.2077171,"ECCENTRICITY":0.0001545,"INCLINATION":87.9183,"RA_OF_ASC_NODE":295.5101,"ARG_OF_PERICENTER":67.3568,"MEAN_ANOMALY":292.7728,"EPHEMERIS_TYPE":0,"CLASSIFICATION_TYPE":"U","NORAD_CAT_ID":55817,"ELEMENT_SET_NO":999,"REV_AT_EPOCH":14721,"BSTAR":0.00018278,"MEAN_MOTION_DOT":8.7e-7,"MEAN_MOTION_DDOT":0},{"OBJECT_NAME":"ONEWEB-0657","OBJECT_ID":"2023-029Y","EPOCH":"2026-03-03T18:19:22.876608","MEAN_MOTION":13.19725447,"ECCENTRICITY":0.00022899,"INCLINATION":87.9236,"RA_OF_ASC_NODE":325.9782,"ARG_OF_PERICENTER":68.0263,"MEAN_ANOMALY":292.1113,"EPHEMERIS_TYPE":0,"CLASSIFICATION_TYPE":"U","NORAD_CAT_ID":55818,"ELEMENT_SET_NO":999,"REV_AT_EPOCH":14500,"BSTAR":0.00018298467,"MEAN_MOTION_DOT":8.6e-7,"MEAN_MOTION_DDOT":0},{"OBJECT_NAME":"ONEWEB-0658","OBJECT_ID":"2023-029Z","EPOCH":"2026-03-03T18:12:33.287040","MEAN_MOTION":13.19725483,"ECCENTRICITY":0.00019367,"INCLINATION":87.9247,"RA_OF_ASC_NODE":325.9456,"ARG_OF_PERICENTER":91.4974,"MEAN_ANOMALY":268.6381,"EPHEMERIS_TYPE":0,"CLASSIFICATION_TYPE":"U","NORAD_CAT_ID":55819,"ELEMENT_SET_NO":999,"REV_AT_EPOCH":14501,"BSTAR":0.00019770194,"MEAN_MOTION_DOT":9.2e-7,"MEAN_MOTION_DDOT":0},{"OBJECT_NAME":"ONEWEB-0660","OBJECT_ID":"2023-029AA","EPOCH":"2026-03-03T16:53:04.555680","MEAN_MOTION":13.14503251,"ECCENTRICITY":0.0001409,"INCLINATION":87.9003,"RA_OF_ASC_NODE":310.7405,"ARG_OF_PERICENTER":89.8269,"MEAN_ANOMALY":270.3022,"EPHEMERIS_TYPE":0,"CLASSIFICATION_TYPE":"U","NORAD_CAT_ID":55820,"ELEMENT_SET_NO":999,"REV_AT_EPOCH":14554,"BSTAR":-0.00022843521,"MEAN_MOTION_DOT":-7.2e-7,"MEAN_MOTION_DDOT":0},{"OBJECT_NAME":"ONEWEB-0661","OBJECT_ID":"2023-029AB","EPOCH":"2026-03-03T17:43:18.578208","MEAN_MOTION":13.14502521,"ECCENTRICITY":0.00013396,"INCLINATION":87.8989,"RA_OF_ASC_NODE":310.7904,"ARG_OF_PERICENTER":86.3883,"MEAN_ANOMALY":273.74,"EPHEMERIS_TYPE":0,"CLASSIFICATION_TYPE":"U","NORAD_CAT_ID":55821,"ELEMENT_SET_NO":999,"REV_AT_EPOCH":14553,"BSTAR":0.00044533785,"MEAN_MOTION_DOT":1.78e-6,"MEAN_MOTION_DDOT":0},{"OBJECT_NAME":"ONEWEB-0662","OBJECT_ID":"2023-029AC","EPOCH":"2026-03-03T16:43:56.370144","MEAN_MOTION":13.14502102,"ECCENTRICITY":0.00014341,"INCLINATION":87.8993,"RA_OF_ASC_NODE":310.8058,"ARG_OF_PERICENTER":90.2489,"MEAN_ANOMALY":269.8805,"EPHEMERIS_TYPE":0,"CLASSIFICATION_TYPE":"U","NORAD_CAT_ID":55822,"ELEMENT_SET_NO":999,"REV_AT_EPOCH":14557,"BSTAR":-5.7325687e-5,"MEAN_MOTION_DOT":-8.0e-8,"MEAN_MOTION_DDOT":0},{"OBJECT_NAME":"ONEWEB-0663","OBJECT_ID":"2023-029AD","EPOCH":"2026-03-03T15:22:31.867968","MEAN_MOTION":13.20862132,"ECCENTRICITY":0.0001581,"INCLINATION":87.919,"RA_OF_ASC_NODE":295.5745,"ARG_OF_PERICENTER":100.089,"MEAN_ANOMALY":260.0421,"EPHEMERIS_TYPE":0,"CLASSIFICATION_TYPE":"U","NORAD_CAT_ID":55823,"ELEMENT_SET_NO":999,"REV_AT_EPOCH":14721,"BSTAR":9.1055e-6,"MEAN_MOTION_DOT":1.7e-7,"MEAN_MOTION_DDOT":0},{"OBJECT_NAME":"ONEWEB-0664","OBJECT_ID":"2023-029AE","EPOCH":"2026-03-03T15:53:38.259168","MEAN_MOTION":13.20773959,"ECCENTRICITY":9.998e-5,"INCLINATION":87.9178,"RA_OF_ASC_NODE":295.5626,"ARG_OF_PERICENTER":89.715,"MEAN_ANOMALY":270.4098,"EPHEMERIS_TYPE":0,"CLASSIFICATION_TYPE":"U","NORAD_CAT_ID":55824,"ELEMENT_SET_NO":999,"REV_AT_EPOCH":14721,"BSTAR":0.00043957584,"MEAN_MOTION_DOT":1.92e-6,"MEAN_MOTION_DDOT":0},{"OBJECT_NAME":"ONEWEB-0665","OBJECT_ID":"2023-029AF","EPOCH":"2026-03-03T17:38:44.814624","MEAN_MOTION":13.14501826,"ECCENTRICITY":0.00014791,"INCLINATION":87.8991,"RA_OF_ASC_NODE":310.771,"ARG_OF_PERICENTER":91.5852,"MEAN_ANOMALY":268.5447,"EPHEMERIS_TYPE":0,"CLASSIFICATION_TYPE":"U","NORAD_CAT_ID":55825,"ELEMENT_SET_NO":999,"REV_AT_EPOCH":14555,"BSTAR":0.00025964803,"MEAN_MOTION_DOT":1.09e-6,"MEAN_MOTION_DDOT":0},{"OBJECT_NAME":"ONEWEB-0666","OBJECT_ID":"2023-029AG","EPOCH":"2026-03-03T15:44:33.184896","MEAN_MOTION":13.20772315,"ECCENTRICITY":0.00021401,"INCLINATION":87.917,"RA_OF_ASC_NODE":295.5543,"ARG_OF_PERICENTER":69.2281,"MEAN_ANOMALY":290.9081,"EPHEMERIS_TYPE":0,"CLASSIFICATION_TYPE":"U","NORAD_CAT_ID":55826,"ELEMENT_SET_NO":999,"REV_AT_EPOCH":14722,"BSTAR":0.00012563898,"MEAN_MOTION_DOT":6.4e-7,"MEAN_MOTION_DDOT":0},{"OBJECT_NAME":"ONEWEB-0667","OBJECT_ID":"2023-029AH","EPOCH":"2026-03-03T15:35:27.895488","MEAN_MOTION":13.20771313,"ECCENTRICITY":0.0001473,"INCLINATION":87.9187,"RA_OF_ASC_NODE":295.4959,"ARG_OF_PERICENTER":91.2648,"MEAN_ANOMALY":268.8654,"EPHEMERIS_TYPE":0,"CLASSIFICATION_TYPE":"U","NORAD_CAT_ID":55827,"ELEMENT_SET_NO":999,"REV_AT_EPOCH":14721,"BSTAR":5.8894e-5,"MEAN_MOTION_DOT":3.7e-7,"MEAN_MOTION_DDOT":0},{"OBJECT_NAME":"ONEWEB-0669","OBJECT_ID":"2023-029AJ","EPOCH":"2026-03-03T15:28:38.705952","MEAN_MOTION":13.20770998,"ECCENTRICITY":0.0001386,"INCLINATION":87.9167,"RA_OF_ASC_NODE":295.5223,"ARG_OF_PERICENTER":60.938,"MEAN_ANOMALY":299.1892,"EPHEMERIS_TYPE":0,"CLASSIFICATION_TYPE":"U","NORAD_CAT_ID":55828,"ELEMENT_SET_NO":999,"REV_AT_EPOCH":14721,"BSTAR":-5.8459e-6,"MEAN_MOTION_DOT":1.1e-7,"MEAN_MOTION_DDOT":0},{"OBJECT_NAME":"ONEWEB-0670","OBJECT_ID":"2023-029AK","EPOCH":"2026-03-03T17:06:46.214496","MEAN_MOTION":13.14502234,"ECCENTRICITY":0.00012285,"INCLINATION":87.8991,"RA_OF_ASC_NODE":310.7945,"ARG_OF_PERICENTER":83.3564,"MEAN_ANOMALY":276.7705,"EPHEMERIS_TYPE":0,"CLASSIFICATION_TYPE":"U","NORAD_CAT_ID":55829,"ELEMENT_SET_NO":999,"REV_AT_EPOCH":14557,"BSTAR":-0.00029742872,"MEAN_MOTION_DOT":-9.7e-7,"MEAN_MOTION_DDOT":0}]
